{"fetched_at":"2026-03-29T02:12:04Z","count":15717,"tles":[{"name":"BANDWAGON-4 OBJECT M","line1":"1 66304U 25248M   26087.29823796  .00020778  00000+0  82405-3 0  9994","line2":"2 66304  45.4113 191.0588 0014373 310.4053  49.5581 15.25031449 20979","category":"Other"}]}